[{"OBJECT_NAME":"NEXTSAT-2","OBJECT_ID":"2023-072A","EPOCH":"2026-03-09T23:10:55.073280","MEAN_MOTION":15.26393087,"ECCENTRICITY":0.00062633,"INCLINATION":97.5306,"RA_OF_ASC_NODE":265.1019,"ARG_OF_PERICENTER":22.4193,"MEAN_ANOMALY":337.7318,"EPHEMERIS_TYPE":0,"CLASSIFICATION_TYPE":"U","NORAD_CAT_ID":56743,"ELEMENT_SET_NO":999,"REV_AT_EPOCH":15445,"BSTAR":0.00056400163,"MEAN_MOTION_DOT":0.00014622,"MEAN_MOTION_DDOT":0},{"OBJECT_NAME":"STARLINK-32623","OBJECT_ID":"2024-224P","EPOCH":"2026-03-09T23:07:50.350944","MEAN_MOTION":15.27601078,"ECCENTRICITY":0.00025283,"INCLINATION":43.0036,"RA_OF_ASC_NODE":159.8747,"ARG_OF_PERICENTER":272.9256,"MEAN_ANOMALY":87.1306,"EPHEMERIS_TYPE":0,"CLASSIFICATION_TYPE":"U","NORAD_CAT_ID":62152,"ELEMENT_SET_NO":999,"REV_AT_EPOCH":7242,"BSTAR":0.00097576233,"MEAN_MOTION_DOT":0.00026704,"MEAN_MOTION_DDOT":0}]
